{"type":"FeatureCollection","features":[{"type":"Feature","properties":{"name":"Karnataka"},"geometry":{"type":"MultiPolygon","coordinates":[[[[74.67097600000011,13.199861999999996],[74.67013500000013,13.199861999999996]]],[[[74.72846900000002,13.282922000000042],[74.727913,13.282922000000042]]],[[[74.70041700000013,13.284310000000005],[74.69986799999998,13.284310000000005]]],[[[74.72374700000012,13.289591000000144],[74.72319700000008,13.289591000000144]]],[[[74.69069700000006,13.334030000000155],[74.68958199999997,13.334030000000155]]],[[[74.68902600000001,13.340972000000079],[74.6876380000001,13.340972000000079]]],[[[74.6826400000001,13.348473000000013],[74.68152600000008,13.348473000000013]]],[[[74.67152500000003,13.383193000000063],[74.67069300000014,13.383193000000063]]],[[[74.48291700000004,14.011250000000018],[74.48052200000012,14.011250000000018]]],[[[74.32624700000002,14.020695000000046],[74.32458600000012,14.020695000000046]]],[[[74.40319800000003,14.315401000000122],[74.40299200000004,14.315420999999958]]],[[[74.3651430000001,14.552640000000054],[74.37819800000005,14.545418000000097],[74.36402800000002,14.552640000000054],[74.3651430000001,14.552640000000054]]],[[[74.25375500000007,14.705974000000083],[74.25264000000004,14.705974000000083]]],[[[74.24069300000008,14.71124999999995],[74.23958500000003,14.71124999999995]]],[[[74.155419,14.741811000000155],[74.15374800000006,14.741811000000155]]],[[[74.11125200000009,14.761541000000136],[74.12014000000005,14.75347099999999],[74.11013700000001,14.761541000000136],[74.11125200000009,14.761541000000136]]],[[[74.08791300000007,14.795972000000063],[74.086525,14.795972000000063]]],[[[74.05652500000008,14.817083999999966],[74.05486400000012,14.817083999999966]]],[[[74.06402600000001,14.821250000000077],[74.06318700000008,14.821250000000077]]],[[[74.05930300000006,14.821528],[74.05847100000011,14.821528]]],[[[74.09402399999999,14.83847100000014],[74.09347400000013,14.83847100000014]]],[[[74.09847300000001,14.845972000000074],[74.09652600000004,14.845972000000074]]],[[[74.0970850000001,14.878472000000102],[74.09569700000003,14.878472000000102]]],[[[77.549957,18.29135000000008],[77.60302000000001,18.277999000000136],[77.56430900000004,18.20055000000002],[77.59777100000002,18.151840000000107],[77.60056300000014,18.099399000000005],[77.54574500000001,18.05376000000001],[77.59224599999993,18.01016900000002],[77.64618000000007,17.993201000000113],[77.65339500000005,17.969352000000015],[77.64398899999998,17.946370999999942],[77.62374200000005,17.957751000000087],[77.61657600000007,17.90286900000001],[77.58516700000007,17.908230000000003],[77.59668800000014,17.87045100000006],[77.572746,17.872810000000015],[77.54973600000005,17.818029000000138],[77.52600100000012,17.826819],[77.51087899999999,17.801441000000068],[77.50448600000004,17.78259000000014],[77.56595600000003,17.76411100000007],[77.562027,17.747111000000018],[77.45034700000002,17.691300000000012],[77.43992700000013,17.581470000000138],[77.48999700000007,17.56627100000003],[77.50161600000007,17.540880999999956],[77.527421,17.573222000000158],[77.54839300000009,17.549459999999954],[77.58982800000007,17.562759000000028],[77.59172899999999,17.532681000000082],[77.68562200000002,17.505650000000117],[77.6840130000001,17.47285100000005],[77.64808699999998,17.481179000000054],[77.65276400000005,17.50325000000015],[77.64042699999999,17.47601200000014],[77.61094700000007,17.469941000000006],[77.61061200000006,17.444232],[77.573197,17.45420100000007],[77.572564,17.429520000000082],[77.53347000000014,17.440950000000043],[77.51014700000002,17.42725900000005],[77.53550700000011,17.404101000000082],[77.52802200000002,17.372111000000018],[77.49912300000005,17.35407000000015],[77.45159900000004,17.370491000000072],[77.43402200000003,17.288259000000153],[77.45450699999998,17.275891],[77.41494100000006,17.22987900000004],[77.38035500000012,17.21977099999998],[77.39881100000002,17.208778999999993],[77.35999300000009,17.161621999999966],[77.376328,17.137889000000087],[77.46263900000008,17.10407100000009],[77.49939000000012,17.007319999999993],[77.4533990000001,16.90903200000014],[77.47113800000005,16.77913000000001],[77.43753900000007,16.78321000000011],[77.42341700000009,16.71453000000008],[77.46679599999999,16.71194100000008],[77.46504300000004,16.678281000000027],[77.41657300000008,16.662812000000145],[77.43293699999992,16.637639000000092],[77.46939199999997,16.646911000000046],[77.4538280000001,16.61379900000003],[77.46417300000002,16.5842090000001],[77.3914410000001,16.565201000000002],[77.41565700000001,16.544001000000037],[77.415322,16.517830000000004],[77.37908100000004,16.51072099999999],[77.36628800000011,16.484110000000157],[77.29664700000012,16.491471000000047],[77.29200000000003,16.473639000000105],[77.23517600000002,16.468081000000097],[77.28466100000014,16.403000000000134],[77.34294999999997,16.37972100000013],[77.41174299999994,16.36268000000007],[77.49449200000004,16.375789000000054],[77.59160600000013,16.33751099999995],[77.59227800000014,16.290110000000027],[77.56498800000008,16.297711000000106],[77.53378199999997,16.26263000000006],[77.50122900000002,16.26781100000011],[77.4875560000001,16.249820999999997],[77.48876200000007,16.224350000000015],[77.51117099999999,16.217189000000076],[77.49532399999998,16.213002000000017],[77.48362700000007,16.158551000000102],[77.48667199999994,16.115760000000023],[77.50940000000003,16.103531000000032],[77.49072200000006,16.030630000000144],[77.510108,16.002250000000117],[77.50945200000007,15.920860000000062],[77.42642300000011,15.942278999999985],[77.18062500000002,15.950063000000114],[77.07679700000006,15.909739999999942],[77.02227099999999,15.83177999999998],[77.06388800000008,15.823170000000118],[77.04708800000003,15.725011999999992],[77.07626999999997,15.721411000000103],[77.07592900000003,15.690879000000052],[77.12497800000006,15.659051000000034],[77.11620300000004,15.62510999999995],[77.08143700000011,15.65284100000008],[77.02928200000008,15.633839000000137],[77.02659699999998,15.499990000000082],[76.97189300000008,15.506331000000046],[76.97039099999995,15.490921999999955],[77.02739700000006,15.435181000000057],[77.061577,15.321860000000015],[77.10968700000001,15.327282000000082],[77.11541700000004,15.289850000000001],[77.14791100000008,15.285670000000039],[77.145171,15.266050999999948],[77.16414699999996,15.259070000000008],[77.12090300000006,15.221240999999964],[77.14996400000012,15.20790100000005],[77.16320100000002,15.161331000000132],[77.13208000000009,15.142681000000152],[77.15403700000013,15.120520999999997],[77.07881900000001,15.000010000000088],[77.04100800000003,15.005482000000029],[77.04688299999998,15.029212000000086],[77.00067800000005,15.029590000000098],[76.98178200000012,15.010360999999989],[76.87670000000014,15.028679000000011],[76.86057299999999,15.056710000000123],[76.79693500000008,15.090760000000103],[76.77422300000006,15.07138100000003],[76.78457500000002,15.01667000000009],[76.76377100000002,14.969870000000128],[76.82789700000001,14.951009999999997],[76.86445700000002,14.964019999999948],[76.86547799999994,14.937600000000145],[76.86030599999992,14.891190000000108],[76.84377400000005,14.8864200000001],[76.84874000000008,14.804031000000009],[76.83377000000013,14.784909000000027],[76.78035000000006,14.77926199999996],[76.79807199999999,14.734591000000137],[76.76091100000014,14.596281000000147],[76.79972900000013,14.527732000000071],[76.82758300000012,14.52305899999999],[76.87020000000001,14.468440000000044],[76.90651800000012,14.484161000000142],[76.97339699999998,14.478281000000152],[76.94378699999999,14.445102000000077],[76.94156700000002,14.399542000000054],[76.9131000000001,14.413551999999981],[76.88314099999997,14.390291000000047],[76.87909799999994,14.346390000000156],[76.9501110000001,14.294029000000137],[76.92485800000003,14.272181000000046],[76.943465,14.236310000000003],[77.04963000000004,14.239542000000085],[77.07534100000004,14.209350000000086],[77.10507899999993,14.213281999999992],[77.1119230000001,14.287531000000001],[77.15215200000011,14.337741000000051],[77.23195600000008,14.31107000000003],[77.2811440000001,14.331111000000021],[77.27958799999993,14.27609000000001],[77.359262,14.269330000000025],[77.35540800000012,14.230040000000088],[77.38378999999992,14.191821000000118],[77.41570199999995,14.211962000000028],[77.37500800000004,14.295188999999993],[77.38565900000003,14.324870000000033],[77.42587400000014,14.320811000000106],[77.44362600000011,14.277551000000074],[77.47934699999996,14.284771000000092],[77.499367,14.26051000000001],[77.50044300000002,14.150961000000109],[77.4097220000001,14.16972000000004],[77.38971799999996,14.16525999999999],[77.37668600000012,14.129601000000036],[77.34773099999995,14.124341000000072],[77.34453600000012,14.09601100000009],[77.38974000000002,14.118570000000034],[77.39544700000005,14.103441000000089],[77.326187,14.022940000000006],[77.38336099999998,14.007359000000122],[77.37565500000011,13.969111000000055],[77.43064199999998,13.968779999999981],[77.42870200000004,13.943341000000146],[77.40770699999996,13.93610000000001],[77.42562800000007,13.902052000000026],[77.39705700000007,13.880541000000107],[77.39041999999995,13.897690000000068],[77.34834200000006,13.896541000000013],[77.35378300000013,13.98232100000007],[77.31349199999994,14.024820000000148],[77.1473380000001,13.99162200000012],[77.12110100000012,14.042180000000144],[77.02369800000008,14.053259000000025],[77.00831599999998,14.098131000000024],[77.01982800000002,14.172702000000015],[76.941642,14.189311999999973],[76.936981,14.165892000000042],[76.89142600000002,14.158999000000108],[76.88368100000008,14.131032000000005],[76.92697800000013,14.127210000000105],[76.97500600000006,14.065269999999941],[76.937973,14.047600000000045],[76.93109900000002,14.022732000000019],[76.99437700000004,13.98149100000012],[76.98899799999998,13.95669200000009],[77.03584300000011,13.925591000000054],[77.04128300000008,13.897400000000005],[77.01728000000003,13.893371000000116],[77.005989,13.850090000000137],[76.96839199999994,13.81439000000006],[76.99259199999995,13.742551000000105],[77.0114220000001,13.73272100000014],[77.02636699999994,13.771441000000038],[77.06004300000012,13.738861000000156],[77.08058899999992,13.737391000000002],[77.09526900000009,13.760880000000157],[77.16658100000012,13.754668999999978],[77.1622460000001,13.820741000000055],[77.12388600000014,13.849390000000142],[77.16248999999999,13.856980000000021],[77.15593800000005,13.89981200000011],[77.177033,13.917400000000157],[77.17880200000002,13.85984000000002],[77.20494100000002,13.88116100000002],[77.21150999999998,13.861419000000126],[77.2338410000001,13.894932000000097],[77.25044199999996,13.839471000000117],[77.30693000000008,13.857240000000047],[77.32000800000014,13.825751000000025],[77.35946700000005,13.845671000000095],[77.37285700000007,13.831289000000083],[77.42452900000006,13.835130000000106],[77.40866199999994,13.799252000000024],[77.45745099999999,13.79705000000007],[77.44481599999995,13.695761000000061],[77.44975199999999,13.675791000000117],[77.47648700000013,13.67760000000004],[77.48734199999996,13.706792000000064],[77.52152200000006,13.687870000000146],[77.51966900000008,13.743850000000123],[77.55607600000002,13.716460000000097],[77.59559700000011,13.743579000000068],[77.6212460000001,13.72740200000004],[77.63674900000012,13.735242000000028],[77.61046600000009,13.755440000000021],[77.64908600000001,13.775840000000017],[77.67022700000007,13.777499000000148],[77.66371100000003,13.752260000000149],[77.69552499999998,13.761432000000013],[77.70874900000007,13.732739000000038],[77.71286000000003,13.790519999999958],[77.77848799999998,13.81289200000009],[77.77603800000014,13.835911000000067],[77.82772000000006,13.860620000000097],[77.80635699999999,13.908640999999989],[77.8182910000001,13.934881000000075],[77.88698599999998,13.931182000000092],[77.91160600000006,13.897241000000008],[77.96127300000012,13.949971000000005],[77.97857600000003,13.947651000000064],[77.978026,13.893349999999941],[77.94246700000002,13.880231000000038],[77.94458000000003,13.819971000000123],[77.96578300000004,13.820160000000158],[77.98516000000001,13.861670000000117],[78.037826,13.852850000000046],[78.04115400000006,13.886728999999946],[78.11353199999996,13.840891],[78.11823200000003,13.776899999999955],[78.08492200000012,13.733492000000012],[78.10938199999998,13.710231000000078],[78.10537800000014,13.68440099999998],[78.06405700000005,13.688180000000045],[78.05834099999993,13.666969999999992],[78.08072700000014,13.635341000000096],[78.15576300000009,13.648710000000108],[78.16053700000003,13.623430000000099],[78.193938,13.616159000000152],[78.18327399999998,13.556380000000104],[78.22769200000005,13.587221],[78.390762,13.578100000000063],[78.35515500000014,13.355071000000066],[78.39737600000012,13.332332000000008],[78.36699700000008,13.320040000000063],[78.39125000000007,13.303710000000024],[78.42446799999999,13.31910099999999],[78.43598199999997,13.298350000000084],[78.47174899999993,13.307920000000024],[78.52079800000001,13.255590999999981],[78.555657,13.299430000000086],[78.57746900000012,13.262050000000102],[78.55887600000005,13.2271310000001],[78.56868000000014,13.204263000000026],[78.54094800000013,13.187251000000003],[78.569077,13.15648300000015],[78.50875100000013,13.119590000000073],[78.52796100000012,13.09735999999998],[78.50192199999998,13.08166100000011],[78.5045770000001,13.052762000000143],[78.45157600000005,13.031532000000027],[78.4579010000001,12.963242000000093],[78.42265399999997,12.968600000000038],[78.42135699999994,12.923530000000028],[78.45613200000008,12.892753000000141],[78.45423800000003,12.85316199999994],[78.43583000000001,12.900670000000048],[78.37834100000009,12.895191000000068],[78.34542800000003,12.928061000000127],[78.30310000000003,12.847200000000157],[78.24109600000008,12.84742099999994],[78.22065000000003,12.752590000000112],[78.12066600000014,12.770012000000122],[78.04673099999997,12.842370000000017],[78.01492300000001,12.845921000000033],[77.99330099999997,12.813671000000056],[78.00148100000001,12.795440000000099],[77.98140000000012,12.795641000000046],[77.94555600000001,12.849331000000063],[77.932975,12.812921000000017],[77.91047700000013,12.819711000000154],[77.93444900000009,12.856040000000064],[77.92428699999999,12.877840000000106],[77.82560000000001,12.858990000000063],[77.7848810000001,12.833809999999971],[77.79949299999993,12.786858999999936],[77.77163000000007,12.759831000000077],[77.7829210000001,12.738822000000141],[77.75306699999999,12.725098999999943],[77.75023600000009,12.687161000000117],[77.72725800000012,12.682871999999975],[77.7314080000001,12.663980000000038],[77.70381900000001,12.67374099999995],[77.678361,12.649020000000007],[77.65428900000012,12.674170000000117],[77.59033900000009,12.657541000000037],[77.59781600000002,12.621020000000044],[77.57005200000003,12.557932000000108],[77.57850500000006,12.507011000000034],[77.60637000000008,12.499791000000016],[77.5753620000001,12.468380000000082],[77.6252070000001,12.47726200000011],[77.62008600000007,12.40847999999994],[77.60382900000002,12.353751000000102],[77.542709,12.283710999999983],[77.47017600000004,12.261870000000158],[77.46566800000005,12.202261000000135],[77.5113070000001,12.1839710000001],[77.60411800000008,12.195161999999982],[77.72635700000001,12.167320000000132],[77.76844899999998,12.105592000000115],[77.68945400000001,12.009950000000117],[77.66471100000001,11.939700000000016],[77.52365100000003,11.921481000000028],[77.48439800000011,11.932399999999973],[77.47690599999999,11.876012000000003],[77.45279700000003,11.888531000000057],[77.456298,11.839122000000032],[77.41925099999997,11.750671000000011],[77.35949,11.778790999999956],[77.32611799999995,11.75894000000011],[77.28481399999998,11.79836199999994],[77.24173800000011,11.80246000000011],[77.22705100000013,11.78374999999994],[77.10282899999993,11.763120000000072],[77.10930000000013,11.712801000000127],[77.07163200000008,11.725010000000054],[77.05654199999998,11.777120000000082],[77.02757200000002,11.761700000000019],[77.02275900000001,11.794982000000061],[76.97276999999997,11.801069000000098],[76.95960200000007,11.76520000000005],[76.94444300000009,11.781341000000111],[76.89335599999998,11.777303000000131],[76.82847600000014,11.644110000000069],[76.85090700000012,11.60182999999995],[76.83728000000008,11.574480000000108],[76.8165130000001,11.597209999999961],[76.74627000000004,11.610541000000069],[76.60144000000008,11.60122100000001],[76.55362600000001,11.612920000000088],[76.5404210000001,11.670509000000095],[76.50421199999994,11.698041000000103],[76.45136300000007,11.655120000000124],[76.41020900000007,11.664570000000026],[76.39640900000012,11.701079000000107],[76.41889300000008,11.717081000000007],[76.40767700000004,11.753331000000003],[76.33497700000004,11.73063000000002],[76.27201100000013,11.803540000000112],[76.21852900000005,11.80003899999997],[76.1840370000001,11.863762000000065],[76.11653100000001,11.84304000000003],[76.107909,11.970639000000006],[75.99819100000013,11.92362100000014],[75.86589900000001,11.945630000000051],[75.82697400000006,11.977971000000082],[75.79325799999998,12.047510000000102],[75.79968300000007,12.071181000000081],[75.71705500000007,12.062089999999955],[75.70159799999993,12.100330999999983],[75.66242900000003,12.091181000000006],[75.63508600000006,12.142390999999975],[75.57684300000011,12.150750000000073],[75.53373800000014,12.196092000000021],[75.48272600000001,12.286181000000113],[75.41912900000005,12.286400000000071],[75.42138800000009,12.366730000000018],[75.36560100000014,12.407041000000106],[75.36662200000006,12.45166000000006],[75.42250899999993,12.46006100000011],[75.414489,12.496712000000002],[75.34086600000006,12.456050000000062],[75.33484699999997,12.490240999999969],[75.30494700000014,12.496753000000012],[75.30465700000013,12.517290000000003],[75.28114300000004,12.518140000000017],[75.2724080000001,12.539881000000094],[75.27683400000006,12.564089999999965],[75.32785899999999,12.585181000000148],[75.276726,12.611660000000086],[75.2229000000001,12.562640000000101],[75.20340700000014,12.580570000000023],[75.20143100000007,12.625111000000118],[75.15917100000007,12.617050000000006],[75.14296600000006,12.633310000000108],[75.16129300000011,12.664071000000149],[75.15064200000012,12.67634200000009],[75.11267199999998,12.675911000000099],[75.08609700000005,12.697781999999961],[75.08309100000002,12.666409000000101],[75.04780599999998,12.66008899999997],[75.04966800000005,12.714699999999993],[75.00708000000009,12.709209000000044],[75.01216900000014,12.722841000000017],[74.98477800000006,12.729881000000034],[75.0086070000001,12.760431000000153],[74.99228600000009,12.790459999999996],[74.8670810000001,12.754452000000015],[74.820968,12.852362000000028],[74.80680699999999,12.91930700000006],[74.820968,12.929312000000095],[74.80236099999996,12.931250000000034],[74.77458300000006,13.07763800000015],[74.78424200000006,13.059032000000059],[74.78958200000011,13.09875000000011],[74.77348400000005,13.083189999999945],[74.7140280000001,13.321530999999993],[74.69040700000005,13.348470000000134],[74.72902700000014,13.277081000000123],[74.71125000000012,13.341811000000007],[74.69513700000005,13.347641000000124],[74.67069300000014,13.633750000000077],[74.60679700000014,13.866528999999957],[74.63318699999996,13.849030000000027],[74.61541699999998,13.852080000000115],[74.57013699999999,13.946528999999941],[74.53151700000006,13.964860000000044],[74.50152600000001,14.022641000000135],[74.51791300000014,14.027082999999948],[74.50402899999995,14.041810999999996],[74.500968,14.027080999999953],[74.48042400000014,14.093201000000136],[74.47097000000008,14.183473000000049],[74.44180400000005,14.223749999999939],[74.39624900000007,14.409583999999938],[74.35376099999996,14.502920999999958],[74.37319300000001,14.537082999999996],[74.39346999999998,14.529311000000007],[74.38736,14.546809999999994],[74.36458700000009,14.553762000000006],[74.375969,14.573750000000018],[74.35431000000011,14.542915000000107],[74.33736499999998,14.568749000000139],[74.35597200000012,14.522079000000076],[74.309593,14.520691],[74.2945850000001,14.601530000000139],[74.26957600000014,14.626810000000148],[74.28402600000004,14.630972000000042],[74.28180600000002,14.677920000000029],[74.24957900000004,14.739584000000093],[74.20707799999997,14.737639999999999],[74.20486500000004,14.717915999999946],[74.16681000000011,14.766530000000103],[74.15319900000014,14.74597],[74.14292300000005,14.777921000000049],[74.11904199999998,14.774860999999987],[74.09263600000008,14.80319000000003],[74.120972,14.802083000000096],[74.13041700000002,14.839862000000096],[74.11207700000011,14.84681100000006],[74.104173,14.903749999999945],[74.13939699999997,14.920461000000103],[74.1753910000001,14.908919000000083],[74.16609900000009,14.9394420000001],[74.18036700000005,14.953050000000019],[74.21183700000012,14.921420000000069],[74.27011900000008,14.966641000000095],[74.26171100000005,14.990761000000077],[74.30233700000008,15.039860000000033],[74.27834400000012,15.095900000000142],[74.28956700000003,15.143130000000156],[74.32190800000006,15.18407000000002],[74.30668500000007,15.22320099999996],[74.257522,15.257629000000009],[74.34165200000012,15.29293100000001],[74.32836900000012,15.367251000000067],[74.28263800000013,15.388620000000003],[74.2825170000001,15.443121000000133],[74.25633199999999,15.489520000000141],[74.28727600000002,15.526000000000124],[74.25431100000009,15.565830000000005],[74.26854599999996,15.609589000000085],[74.25525700000003,15.654210000000035],[74.231583,15.666519999999991],[74.21325000000013,15.649030000000096],[74.190133,15.680981000000145],[74.163232,15.64859000000007],[74.09652600000004,15.670849999999973],[74.13359900000006,15.678401000000008],[74.13062200000013,15.71792099999999],[74.16767200000004,15.749250000000131],[74.20440000000008,15.753400999999997],[74.227349,15.78567099999998],[74.25006900000011,15.7411800000001],[74.27400900000009,15.753120000000024],[74.29216700000006,15.739311000000043],[74.32974999999999,15.770379999999932],[74.3648530000001,15.77365100000003],[74.36637100000007,15.815490999999952],[74.38931300000013,15.844140000000039],[74.34453500000012,15.852051000000017],[74.37412300000005,15.891610000000014],[74.39343100000013,15.851769999999988],[74.41158300000012,15.852591000000075],[74.3918680000001,15.90115899999995],[74.43522600000006,15.951170000000047],[74.47027500000013,16.040540000000135],[74.44048200000009,16.057020000000136],[74.39005400000013,16.03512900000004],[74.368156,16.052959000000044],[74.43459300000006,16.110621000000094],[74.48185700000005,16.086970000000008],[74.49640700000009,16.10158000000007],[74.48580900000002,16.14698900000002],[74.512879,16.188262000000122],[74.50311300000004,16.23104100000012],[74.4225320000001,16.257450000000063],[74.42122600000005,16.28059000000013],[74.39126600000003,16.275600999999995],[74.380067,16.293501000000106],[74.33065700000009,16.272939000000008],[74.34871700000008,16.291470000000118],[74.32302000000004,16.32512200000002],[74.32546300000001,16.37924899999996],[74.34306299999997,16.390670000000114],[74.36165600000004,16.364749000000018],[74.36911099999998,16.394330000000082],[74.3426520000001,16.400491000000045],[74.3388670000001,16.452161000000046],[74.29631799999993,16.459012000000087],[74.29989600000005,16.50263000000001],[74.268776,16.476030000000037],[74.25315800000004,16.494881000000134],[74.28575799999999,16.503371000000072],[74.27636800000005,16.544532000000117],[74.28961900000007,16.522569999999973],[74.30692199999999,16.529171000000076],[74.31411800000012,16.502099000000158],[74.32940600000012,16.55347100000006],[74.36561700000004,16.557069000000013],[74.36258800000007,16.538741000000016],[74.38992400000001,16.527900999999986],[74.40348000000006,16.578670999999986],[74.47245800000007,16.604811000000097],[74.46283800000009,16.644490000000133],[74.47738600000014,16.66077899999999],[74.49801000000002,16.626640000000066],[74.55143700000013,16.633211000000017],[74.54985099999999,16.59218000000004],[74.56555900000012,16.590379000000098],[74.55966900000004,16.55974999999995],[74.574051,16.5519690000001],[74.636367,16.57573999999994],[74.64280800000006,16.606771000000094],[74.69037600000013,16.604460000000017],[74.66050700000005,16.637580000000014],[74.69610500000005,16.674981000000002],[74.69819800000005,16.715200000000095],[74.73661700000002,16.715839000000017],[74.85497200000009,16.770770000000027],[74.92382100000009,16.76995000000005],[74.91195800000014,16.85593900000015],[74.9640950000001,16.877881000000002],[74.967263,16.905381000000034],[74.927032,16.925622000000033],[74.93839300000013,16.940990000000056],[74.98581799999994,16.92901999999998],[75.03029700000008,16.94153],[75.03190599999999,16.925670000000082],[75.090416,16.948650000000043],[75.09796900000003,16.91387000000003],[75.138397,16.892921000000115],[75.14112900000009,16.873541000000102],[75.18965900000006,16.873500000000092],[75.18319799999995,16.84204100000005],[75.21585800000008,16.840339000000085],[75.28277500000007,16.874241000000097],[75.28843699999993,16.95477199999999],[75.345328,16.952519999999993],[75.39476100000002,16.976392000000033],[75.43102199999998,16.96346000000011],[75.46791199999996,16.98533000000009],[75.49249200000014,16.94290000000001],[75.53286700000001,16.966651000000013],[75.57034299999998,16.963622000000043],[75.57579700000002,17.007800000000145],[75.60951900000009,17.00311000000005],[75.610656,16.969619999999964],[75.64502800000002,16.951031999999998],[75.67460699999992,16.96026900000004],[75.6722410000001,17.035731000000112],[75.64375400000011,17.03639900000013],[75.67840600000005,17.06286],[75.67849000000007,17.094171000000017],[75.6280210000001,17.17012100000011],[75.66211700000002,17.20832999999999],[75.65989000000013,17.261441000000048],[75.60595700000005,17.303261000000077],[75.61310600000007,17.342291000000046],[75.58483100000001,17.349780000000067],[75.57853599999999,17.382930000000044],[75.61580700000007,17.39185999999995],[75.63559000000004,17.477510000000052],[75.67755800000003,17.4579710000001],[75.69119200000011,17.412611000000084],[75.73703699999993,17.42189900000011],[75.80233800000002,17.370101000000147],[75.82472200000007,17.422848999999985],[75.86196999999999,17.38585000000006],[75.88723900000014,17.417328999999995],[75.89366100000001,17.35362100000009],[75.93115300000005,17.324110000000132],[76.05452700000006,17.354300000000137],[76.07874299999997,17.33007000000015],[76.12120800000008,17.36634000000015],[76.16314599999993,17.340910000000008],[76.17575900000014,17.297210000000007],[76.17233299999998,17.348730000000046],[76.24436100000008,17.374680000000126],[76.27587900000003,17.33053100000012],[76.31720700000005,17.329441000000145],[76.31301099999996,17.34327100000013],[76.343613,17.34993100000014],[76.35227100000014,17.310590000000047],[76.38170600000001,17.311810000000094],[76.40806700000013,17.369289999999978],[76.36199800000009,17.37508100000008],[76.373178,17.434419999999932],[76.33365700000007,17.432292000000075],[76.33080400000011,17.468819000000053],[76.37503700000013,17.493521000000044],[76.34348300000005,17.494350000000054],[76.36612600000001,17.52217200000007],[76.34002800000002,17.54257000000007],[76.33167199999997,17.59486900000013],[76.41567200000003,17.60419999999999],[76.42872699999998,17.644410999999934],[76.48929500000014,17.660669999999982],[76.48636600000009,17.71352100000007],[76.52363500000013,17.715230000000076],[76.52369600000003,17.75889000000012],[76.57330400000001,17.760000000000105],[76.57322600000009,17.70216900000014],[76.61444899999998,17.768312000000037],[76.66313800000006,17.687860000000114],[76.69055200000008,17.67995200000007],[76.69815000000011,17.72604000000007],[76.72760799999998,17.736999000000026],[76.71570700000007,17.781920000000127],[76.76275700000014,17.787109999999984],[76.78816900000004,17.82647099999997],[76.73745600000012,17.85705900000005],[76.740677,17.898009999999942],[76.80280399999998,17.868320000000097],[76.91644400000001,17.915090000000077],[76.9177180000001,18.033229000000006],[76.95464400000003,18.03968100000003],[76.9470300000001,18.073761000000047],[76.96827600000012,18.097111000000098],[76.92256100000003,18.116109999999992],[76.95410899999996,18.18488999999994],[76.9878920000001,18.188479000000086],[77.02398700000003,18.162680000000137],[77.03283700000009,18.183780000000127],[77.05767000000003,18.152362000000096],[77.1088870000001,18.152690000000064],[77.09554300000002,18.19510000000008],[77.14998700000007,18.216561000000127],[77.17053300000009,18.280871000000104],[77.20617700000014,18.27796000000012],[77.19541199999992,18.312710000000095],[77.24503399999998,18.370588999999995],[77.240227,18.408648000000028],[77.3174140000001,18.45379100000008],[77.34207900000007,18.430291000000068],[77.36962899999992,18.447651000000064],[77.36975000000001,18.400710000000004],[77.41011100000014,18.388530000000117],[77.39833099999993,18.34749899999997],[77.35881000000006,18.31065000000001],[77.43637200000012,18.306490999999994],[77.43692800000014,18.282039999999995],[77.46539400000012,18.259960000000092],[77.51020899999997,18.2784410000001],[77.50950699999999,18.306730000000016],[77.53958200000011,18.293830000000128],[77.549957,18.29135000000008]]]]}}]}